NORAD_CAT_ID,OBJECT_NAME,OBJECT_TYPE,EPOCH,MEAN_MOTION,ECCENTRICITY,INCLINATION,RA_OF_ASC_NODE,ARG_OF_PERICENTER,MEAN_ANOMALY,BSTAR,MEAN_MOTION_DOT,MEAN_MOTION_DDOT,TLE_LINE0,TLE_LINE1,TLE_LINE2,SEMIMAJOR_AXIS,PERIOD,APOGEE,PERIGEE,DECAYED
55669.0,STARLINK-5459,PAYLOAD,2023-11-23 20:22:42,14.98327679,0.0003029,69.9991,114.4414,273.2141,86.8671,-1.5069e-05,-2.73e-06,0.0,0 STARLINK-5459,1 55669U 23021AT  23327.84910703 -.00000273  00000-0 -15069-4 0  9997,2 55669  69.9991 114.4414 0003029 273.2141  86.8671 14.98327679 43930,6950.2,96.107,574.17,569.96,0.0
55669.0,STARLINK-5459,PAYLOAD,2023-11-24 14:00:11,14.98331942,0.0003025,69.9995,112.5907,273.4115,86.6698,-5.5523e-06,-1.59e-06,0.0,0 STARLINK-5459,1 55669U 23021AT  23328.58346527 -.00000159  00000-0 -55523-5 0  9999,2 55669  69.9995 112.5907 0003025 273.4115  86.6698 14.98331942 44047,6950.187,96.107,574.154,569.949,0.0
55669.0,STARLINK-5459,PAYLOAD,2023-11-24 18:48:35,14.98335048,0.0002818,69.9998,112.086,265.9204,94.1633,4.8506e-05,4.86e-06,0.0,0 STARLINK-5459,1 55669U 23021AT  23328.78374136  .00000486  00000-0  48506-4 0  9991,2 55669  69.9998 112.0860 0002818 265.9204  94.1633 14.98335048 43770,6950.177,96.107,574.001,570.084,0.0
55669.0,STARLINK-5459,PAYLOAD,2023-11-25 14:02:12,14.9832927,0.0002859,69.9997,110.0658,262.6557,97.4277,0.00014667,1.657e-05,0.0,0 STARLINK-5459,1 55669U 23021AT  23329.58486321  .00001657  00000-0  14667-3 0  9991,2 55669  69.9997 110.0658 0002859 262.6557  97.4277 14.98329270 44199,6950.195,96.107,574.047,570.073,0.0
55669.0,STARLINK-5459,PAYLOAD,2023-11-25 20:26:43,14.98336597,0.0002794,69.9999,109.3926,259.7989,100.2855,0.00023228,2.68e-05,0.0,0 STARLINK-5459,1 55669U 23021AT  23329.85189771  .00002680  00000-0  23228-3 0  9990,2 55669  69.9999 109.3926 0002794 259.7989 100.2855 14.98336597 44234,6950.172,96.107,573.979,570.096,0.0
55669.0,STARLINK-5459,PAYLOAD,2023-11-26 14:04:12,14.98349413,0.0002736,70.0004,107.542,257.1187,102.9667,-5.3415e-06,-1.57e-06,0.0,0 STARLINK-5459,1 55669U 23021AT  23330.58625117 -.00000157  00000-0 -53415-5 0  9993,2 55669  70.0004 107.5420 0002736 257.1187 102.9667 14.98349413 44344,6950.133,96.106,573.899,570.096,0.0
55669.0,STARLINK-5459,PAYLOAD,2023-11-26 18:52:36,14.98340929,0.0002737,70.0004,107.0373,256.5553,103.5301,0.00014229,1.606e-05,0.0,0 STARLINK-5459,1 55669U 23021AT  23330.78653260  .00001606  00000-0  14229-3 0  9991,2 55669  70.0004 107.0373 0002737 256.5553 103.5301 14.98340929 44072,6950.159,96.106,573.926,570.122,0.0
55669.0,STARLINK-5459,PAYLOAD,2023-11-27 12:30:08,14.98308026,0.0002925,70.0004,105.1863,256.2941,103.7892,-0.00023974,-2.951e-05,0.0,0 STARLINK-5459,1 55669U 23021AT  23331.52092670 -.00002951  00000-0 -23974-3 0  9999,2 55669  70.0004 105.1863 0002925 256.2941 103.7892 14.98308026 44183,6950.261,96.108,574.159,570.093,0.0
55669.0,STARLINK-5459,PAYLOAD,2023-11-27 14:06:16,14.98304688,0.0002837,70.0003,105.0173,261.7941,98.2896,-0.00027466,-3.366e-05,0.0,0 STARLINK-5459,1 55669U 23021AT  23331.58769078 -.00003366  00000-0 -27466-3 0  9999,2 55669  70.0003 105.0173 0002837 261.7941  98.2896 14.98304688 44494,6950.271,96.109,574.108,570.164,0.0
55669.0,STARLINK-5459,PAYLOAD,2023-11-27 18:54:40,14.98304391,0.0002782,70.0005,104.513,256.4325,103.6524,-0.00028516,-3.491e-05,0.0,0 STARLINK-5459,1 55669U 23021AT  23331.78797380 -.00003491  00000-0 -28516-3 0  9994,2 55669  70.0005 104.5130 0002782 256.4325 103.6524 14.98304391 44523,6950.272,96.109,574.071,570.204,0.0
55669.0,STARLINK-5459,PAYLOAD,2023-11-28 12:32:07,14.98335517,0.0002658,70.0014,102.661,255.2282,104.8582,0.00011378,1.265e-05,0.0,0 STARLINK-5459,1 55669U 23021AT  23332.52230666  .00001265  00000-0  11378-3 0  9999,2 55669  70.0014 102.6610 0002658 255.2282 104.8582 14.98335517 44336,6950.176,96.107,573.888,570.193,0.0
55669.0,STARLINK-5459,PAYLOAD,2023-11-28 14:08:15,14.98337614,0.0002549,70.0013,102.49,262.7683,97.3187,0.00010131,1.116e-05,0.0,0 STARLINK-5459,1 55669U 23021AT  23332.58906715  .00001116  00000-0  10131-3 0  9991,2 55669  70.0013 102.4900 0002549 262.7683  97.3187 14.98337614 44643,6950.169,96.107,573.806,570.263,0.0
55669.0,STARLINK-5459,PAYLOAD,2023-11-28 18:56:39,14.98342434,0.0002526,70.0019,101.9885,250.6544,109.4343,0.00021062,2.422e-05,0.0,0 STARLINK-5459,1 55669U 23021AT  23332.78934149  .00002422  00000-0  21062-3 0  9991,2 55669  70.0019 101.9885 0002526 250.6544 109.4343 14.98342434 44670,6950.154,96.106,573.775,570.264,0.0
55669.0,STARLINK-5459,PAYLOAD,2023-11-29 12:34:08,14.98326787,0.0002777,70.0011,100.1362,260.2747,99.8098,0.00047502,5.579e-05,0.0,0 STARLINK-5459,1 55669U 23021AT  23333.52370655  .00005579  00000-0  47502-3 0  9993,2 55669  70.0011 100.1362 0002777 260.2747  99.8098 14.98326787 44484,6950.203,96.107,573.998,570.138,0.0
55669.0,STARLINK-5459,PAYLOAD,2023-11-29 14:10:16,14.98327542,0.0002757,70.0011,99.9678,259.8607,100.2241,0.00047519,5.581e-05,0.0,0 STARLINK-5459,1 55669U 23021AT  23333.59046630  .00005581  00000-0  47519-3 0  9994,2 55669  70.0011  99.9678 0002757 259.8607 100.2241 14.98327542 44797,6950.2,96.107,573.982,570.149,0.0
55669.0,STARLINK-5459,PAYLOAD,2023-11-30 17:24:32,14.98343562,0.0003147,70.0006,97.1071,262.4417,97.6385,-2.2274e-05,-3.59e-06,0.0,0 STARLINK-5459,1 55669U 23021AT  23334.72538152 -.00000359  00000-0 -22274-4 0  9997,2 55669  70.0006  97.1071 0003147 262.4417  97.6385 14.98343562 44665,6950.151,96.106,574.203,569.829,0.0
55669.0,STARLINK-5459,PAYLOAD,2023-12-01 11:02:01,14.98336597,0.0003179,70.0006,95.2549,267.988,92.0915,-7.3637e-06,-1.81e-06,0.0,0 STARLINK-5459,1 55669U 23021AT  23335.45974139 -.00000181  00000-0 -73637-5 0  9990,2 55669  70.0006  95.2549 0003179 267.9880  92.0915 14.98336597 44773,6950.172,96.107,574.247,569.828,0.0
55669.0,STARLINK-5459,PAYLOAD,2023-12-01 17:26:33,14.98341228,0.0003017,70.0009,94.5815,263.898,96.1836,4.7016e-05,4.68e-06,0.0,0 STARLINK-5459,1 55669U 23021AT  23335.72677547  .00000468  00000-0  47016-4 0  9990,2 55669  70.0009  94.5815 0003017 263.8980  96.1836 14.98341228 45114,6950.158,96.106,574.12,569.926,0.0
55669.0,STARLINK-5459,PAYLOAD,2023-12-02 14:16:17,14.98345751,0.0002909,70.0024,92.3938,259.9929,100.0902,0.00031545,3.674e-05,0.0,0 STARLINK-5459,1 55669U 23021AT  23336.59464713  .00003674  00000-0  31545-3 0  9996,2 55669  70.0024  92.3938 0002909 259.9929 100.0902 14.98345751 45249,6950.144,96.106,574.031,569.987,0.0
55669.0,STARLINK-5459,PAYLOAD,2023-12-02 17:28:33,14.98352008,0.0002899,70.0023,92.0567,260.4668,99.6164,0.0004381,5.141e-05,0.0,0 STARLINK-5459,1 55669U 23021AT  23336.72816309  .00005141  00000-0  43810-3 0  9992,2 55669  70.0023  92.0567 0002899 260.4668  99.6164 14.98352008 44962,6950.125,96.106,574.005,569.975,0.0
55669.0,STARLINK-5459,PAYLOAD,2023-12-03 11:06:04,14.9830946,0.0003173,70.0033,90.2066,261.4175,98.6625,-0.00044752,-5.426e-05,0.0,0 STARLINK-5459,1 55669U 23021AT  23337.46254631 -.00005426  00000-0 -44752-3 0  9992,2 55669  70.0033  90.2066 0003173 261.4175  98.6625 14.98309460 45075,6950.256,96.108,574.327,569.916,0.0
55669.0,STARLINK-5459,PAYLOAD,2023-12-03 14:18:18,14.98346927,0.0003119,70.0028,89.8694,246.2736,113.8096,0.00052354,6.162e-05,0.0,0 STARLINK-5459,1 55669U 23021AT  23337.59605265  .00006162  00000-0  52354-3 0  9992,2 55669  70.0028  89.8694 0003119 246.2736 113.8096 14.98346927 45390,6950.141,96.106,574.173,569.838,0.0
55669.0,STARLINK-5459,PAYLOAD,2023-12-03 17:30:35,14.98355541,0.000368,70.0013,89.5299,265.0799,94.994,0.0012553,0.00014927,0.0,0 STARLINK-5459,1 55669U 23021AT  23337.72957250  .00014927  00000-0  12553-2 0  9995,2 55669  70.0013  89.5299 0003680 265.0799  94.9940 14.98355541 45112,6950.114,96.105,574.537,569.421,0.0
55669.0,STARLINK-5459,PAYLOAD,2023-12-04 11:08:04,14.98325102,0.0003285,70.0021,87.682,267.8305,92.2478,0.0001472,1.664e-05,0.0,0 STARLINK-5459,1 55669U 23021AT  23338.46393673  .00001664  00000-0  14720-3 0  9993,2 55669  70.0021  87.6820 0003285 267.8305  92.2478 14.98325102 45223,6950.208,96.107,574.356,569.79,0.0
55669.0,STARLINK-5459,PAYLOAD,2023-12-04 12:44:12,14.98323714,0.0003377,70.0014,87.5104,274.8266,85.2507,8.8017e-05,9.57e-06,0.0,0 STARLINK-5459,1 55669U 23021AT  23338.53070135  .00000957  00000-0  88017-4 0  9991,2 55669  70.0014  87.5104 0003377 274.8266  85.2507 14.98323714 45531,6950.212,96.107,574.424,569.73,0.0
55669.0,STARLINK-5459,PAYLOAD,2023-12-05 11:10:05,14.98338863,0.0003518,70.001,85.1542,271.4714,88.6041,0.00035283,4.12e-05,0.0,0 STARLINK-5459,1 55669U 23021AT  23339.46533816  .00004120  00000-0  35283-3 0  9996,2 55669  70.0010  85.1542 0003518 271.4714  88.6041 14.98338863 45378,6950.165,96.106,574.476,569.585,0.0
55669.0,STARLINK-5459,PAYLOAD,2023-12-05 17:34:37,14.98343716,0.0003301,70.0011,84.4809,269.4076,90.6705,0.00071267,8.424e-05,0.0,0 STARLINK-5459,1 55669U 23021AT  23339.73237643  .00008424  00000-0  71267-3 0  9998,2 55669  70.0011  84.4809 0003301 269.4076  90.6705 14.98343716 45716,6950.15,96.106,574.31,569.721,0.0
55669.0,STARLINK-5459,PAYLOAD,2023-12-06 11:12:06,14.98331778,0.0003281,70.0006,82.6286,267.9094,92.1689,0.00026538,3.075e-05,0.0,0 STARLINK-5459,1 55669U 23021AT  23340.46674072  .00003075  00000-0  26538-3 0  9999,2 55669  70.0006  82.6286 0003281 267.9094  92.1689 14.98331778 45521,6950.187,96.107,574.333,569.772,0.0
55669.0,STARLINK-5459,PAYLOAD,2023-12-06 12:48:14,14.98329249,0.000304,70.0017,82.4611,264.8368,95.2444,0.00014725,1.664e-05,0.0,0 STARLINK-5459,1 55669U 23021AT  23340.53350141  .00001664  00000-0  14725-3 0  9992,2 55669  70.0017  82.4611 0003040 264.8368  95.2444 14.98329249 45833,6950.195,96.107,574.173,569.947,0.0
55669.0,STARLINK-5459,PAYLOAD,2023-12-07 11:14:07,14.98332309,0.0003201,70.0012,80.1039,262.975,97.1045,4.6306e-05,4.6e-06,0.0,0 STARLINK-5459,1 55669U 23021AT  23341.46813799  .00000460  00000-0  46306-4 0  9992,2 55669  70.0012  80.1039 0003201 262.9750  97.1045 14.98332309 45671,6950.186,96.107,574.276,569.826,0.0
